{
    "week": 295,
    "satellites": [
        {
            "Name": "BEIDOU-3 M13 (C32)",
            "Line1": "1 43622U 18072A   24339.49229648 -.00000004  00000+0  00000+0 0  9993",
            "Line2": "2 43622  56.1347  81.2066 0005449 290.1838  69.7595  1.86230950 42237",
            "SatelliteNumber": "43622",
            "Classification": "U",
            "LaunchYear": "18",
            "LaunchNumber": "072",
            "PieceOfLaunch": "A",
            "EpochYear": "24",
            "EpochDay": 339.49229648,
            "FirstDerivativeMeanMotion": -4e-08,
            "SecondDerivativeMeanMotion": "00000+0",
            "BSTAR": "00000+0",
            "SetNumber": "999",
            "Inclination": 56.1347,
            "RAAN": 81.2066,
            "Eccentricity": 0.0005449,
            "ArgumentOfPerigee": 290.1838,
            "MeanAnomaly": 69.7595,
            "MeanMotion": 1.8623095,
            "RevolutionNumber": "4223"
        },
        {
            "Name": "BEIDOU-3 M14 (C33)",
            "Line1": "1 43623U 18072B   24340.96863367  .00000000  00000+0  00000+0 0  9995",
            "Line2": "2 43623  56.1378  81.1509 0002865 324.5605  35.4278  1.86230906 42257",
            "SatelliteNumber": "43623",
            "Classification": "U",
            "LaunchYear": "18",
            "LaunchNumber": "072",
            "PieceOfLaunch": "B",
            "EpochYear": "24",
            "EpochDay": 340.96863367,
            "FirstDerivativeMeanMotion": 0.0,
            "SecondDerivativeMeanMotion": "00000+0",
            "BSTAR": "00000+0",
            "SetNumber": "999",
            "Inclination": 56.1378,
            "RAAN": 81.1509,
            "Eccentricity": 0.0002865,
            "ArgumentOfPerigee": 324.5605,
            "MeanAnomaly": 35.4278,
            "MeanMotion": 1.86230906,
            "RevolutionNumber": "4225"
        },
        {
            "Name": "BEIDOU-3 M16 (C35)",
            "Line1": "1 43647U 18078A   24341.13020698 -.00000047  00000+0  00000+0 0  9991",
            "Line2": "2 43647  54.5824 319.4713 0006976   7.9380 352.0744  1.86232178 41768",
            "SatelliteNumber": "43647",
            "Classification": "U",
            "LaunchYear": "18",
            "LaunchNumber": "078",
            "PieceOfLaunch": "A",
            "EpochYear": "24",
            "EpochDay": 341.13020698,
            "FirstDerivativeMeanMotion": -4.7e-07,
            "SecondDerivativeMeanMotion": "00000+0",
            "BSTAR": "00000+0",
            "SetNumber": "999",
            "Inclination": 54.5824,
            "RAAN": 319.4713,
            "Eccentricity": 0.0006976,
            "ArgumentOfPerigee": 7.938,
            "MeanAnomaly": 352.0744,
            "MeanMotion": 1.86232178,
            "RevolutionNumber": "4176"
        },
        {
            "Name": "BEIDOU-3 M15 (C34)",
            "Line1": "1 43648U 18078B   24341.25935091 -.00000047  00000+0  00000+0 0  9997",
            "Line2": "2 43648  54.5781 319.4690 0003723   4.5141 355.4909  1.86232039 41788",
            "SatelliteNumber": "43648",
            "Classification": "U",
            "LaunchYear": "18",
            "LaunchNumber": "078",
            "PieceOfLaunch": "B",
            "EpochYear": "24",
            "EpochDay": 341.25935091,
            "FirstDerivativeMeanMotion": -4.7e-07,
            "SecondDerivativeMeanMotion": "00000+0",
            "BSTAR": "00000+0",
            "SetNumber": "999",
            "Inclination": 54.5781,
            "RAAN": 319.469,
            "Eccentricity": 0.0003723,
            "ArgumentOfPerigee": 4.5141,
            "MeanAnomaly": 355.4909,
            "MeanMotion": 1.86232039,
            "RevolutionNumber": "4178"
        },
        {
            "Name": "BEIDOU-3 G1 (C59)",
            "Line1": "1 43683U 18085A   24341.59756734 -.00000260  00000+0  00000+0 0  9993",
            "Line2": "2 43683   2.6182 103.5369 0001929  56.9354 270.4623  1.00276844 22465",
            "SatelliteNumber": "43683",
            "Classification": "U",
            "LaunchYear": "18",
            "LaunchNumber": "085",
            "PieceOfLaunch": "A",
            "EpochYear": "24",
            "EpochDay": 341.59756734,
            "FirstDerivativeMeanMotion": -2.6e-06,
            "SecondDerivativeMeanMotion": "00000+0",
            "BSTAR": "00000+0",
            "SetNumber": "999",
            "Inclination": 2.6182,
            "RAAN": 103.5369,
            "Eccentricity": 0.0001929,
            "ArgumentOfPerigee": 56.9354,
            "MeanAnomaly": 270.4623,
            "MeanMotion": 1.00276844,
            "RevolutionNumber": "2246"
        },
        {
            "Name": "BEIDOU-3 M17 (C36)",
            "Line1": "1 43706U 18093A   24340.87528428  .00000076  00000+0  00000+0 0  9999",
            "Line2": "2 43706  54.1965 201.2418 0006574 299.6805  60.3430  1.86228296 41141",
            "SatelliteNumber": "43706",
            "Classification": "U",
            "LaunchYear": "18",
            "LaunchNumber": "093",
            "PieceOfLaunch": "A",
            "EpochYear": "24",
            "EpochDay": 340.87528428,
            "FirstDerivativeMeanMotion": 7.6e-07,
            "SecondDerivativeMeanMotion": "00000+0",
            "BSTAR": "00000+0",
            "SetNumber": "999",
            "Inclination": 54.1965,
            "RAAN": 201.2418,
            "Eccentricity": 0.0006574,
            "ArgumentOfPerigee": 299.6805,
            "MeanAnomaly": 60.343,
            "MeanMotion": 1.86228296,
            "RevolutionNumber": "4114"
        },
        {
            "Name": "BEIDOU-3 M18 (C37)",
            "Line1": "1 43707U 18093B   24341.27616756  .00000076  00000+0  00000+0 0  9997",
            "Line2": "2 43707  54.1971 201.2200 0006353 340.7474  19.3156  1.86229814 41149",
            "SatelliteNumber": "43707",
            "Classification": "U",
            "LaunchYear": "18",
            "LaunchNumber": "093",
            "PieceOfLaunch": "B",
            "EpochYear": "24",
            "EpochDay": 341.27616756,
            "FirstDerivativeMeanMotion": 7.6e-07,
            "SecondDerivativeMeanMotion": "00000+0",
            "BSTAR": "00000+0",
            "SetNumber": "999",
            "Inclination": 54.1971,
            "RAAN": 201.22,
            "Eccentricity": 0.0006353,
            "ArgumentOfPerigee": 340.7474,
            "MeanAnomaly": 19.3156,
            "MeanMotion": 1.86229814,
            "RevolutionNumber": "4114"
        },
        {
            "Name": "BEIDOU-3 IGSO-1 (C38)",
            "Line1": "1 44204U 19023A   24341.61066537 -.00000213  00000+0  00000+0 0  9992",
            "Line2": "2 44204  57.8950  43.4267 0025100 212.6169 155.1698  1.00249810 20777",
            "SatelliteNumber": "44204",
            "Classification": "U",
            "LaunchYear": "19",
            "LaunchNumber": "023",
            "PieceOfLaunch": "A",
            "EpochYear": "24",
            "EpochDay": 341.61066537,
            "FirstDerivativeMeanMotion": -2.13e-06,
            "SecondDerivativeMeanMotion": "00000+0",
            "BSTAR": "00000+0",
            "SetNumber": "999",
            "Inclination": 57.895,
            "RAAN": 43.4267,
            "Eccentricity": 0.00251,
            "ArgumentOfPerigee": 212.6169,
            "MeanAnomaly": 155.1698,
            "MeanMotion": 1.0024981,
            "RevolutionNumber": "2077"
        },
        {
            "Name": "BEIDOU-2 G8 (C01)",
            "Line1": "1 44231U 19027A   24341.65180851 -.00000230  00000+0  00000+0 0  9995",
            "Line2": "2 44231   1.9053  74.7584 0004561 197.4603 182.9191  1.00273716 20498",
            "SatelliteNumber": "44231",
            "Classification": "U",
            "LaunchYear": "19",
            "LaunchNumber": "027",
            "PieceOfLaunch": "A",
            "EpochYear": "24",
            "EpochDay": 341.65180851,
            "FirstDerivativeMeanMotion": -2.3e-06,
            "SecondDerivativeMeanMotion": "00000+0",
            "BSTAR": "00000+0",
            "SetNumber": "999",
            "Inclination": 1.9053,
            "RAAN": 74.7584,
            "Eccentricity": 0.0004561,
            "ArgumentOfPerigee": 197.4603,
            "MeanAnomaly": 182.9191,
            "MeanMotion": 1.00273716,
            "RevolutionNumber": "2049"
        },
        {
            "Name": "BEIDOU-3 IGSO-2 (C39)",
            "Line1": "1 44337U 19035A   24341.28672463 -.00000060  00000+0  00000+0 0  9996",
            "Line2": "2 44337  55.1909 163.7591 0035402 196.2061 296.1928  1.00285835 20071",
            "SatelliteNumber": "44337",
            "Classification": "U",
            "LaunchYear": "19",
            "LaunchNumber": "035",
            "PieceOfLaunch": "A",
            "EpochYear": "24",
            "EpochDay": 341.28672463,
            "FirstDerivativeMeanMotion": -6e-07,
            "SecondDerivativeMeanMotion": "00000+0",
            "BSTAR": "00000+0",
            "SetNumber": "999",
            "Inclination": 55.1909,
            "RAAN": 163.7591,
            "Eccentricity": 0.0035402,
            "ArgumentOfPerigee": 196.2061,
            "MeanAnomaly": 296.1928,
            "MeanMotion": 1.00285835,
            "RevolutionNumber": "2007"
        }
    ]
}